[{"OBJECT_NAME":"STARLINK-5996","OBJECT_ID":"2023-094K","EPOCH":"2026-03-08T23:47:53.593728","MEAN_MOTION":15.02537614,"ECCENTRICITY":0.00013634,"INCLINATION":43.0047,"RA_OF_ASC_NODE":34.2324,"ARG_OF_PERICENTER":267.6245,"MEAN_ANOMALY":92.4441,"EPHEMERIS_TYPE":0,"CLASSIFICATION_TYPE":"U","NORAD_CAT_ID":57227,"ELEMENT_SET_NO":999,"REV_AT_EPOCH":14701,"BSTAR":-1.178135e-5,"MEAN_MOTION_DOT":-3.63e-6,"MEAN_MOTION_DDOT":0},{"OBJECT_NAME":"COSMOS 249","OBJECT_ID":"1968-091A","EPOCH":"2026-03-09T15:17:49.291584","MEAN_MOTION":12.97101302,"ECCENTRICITY":0.1001971,"INCLINATION":62.3465,"RA_OF_ASC_NODE":159.271,"ARG_OF_PERICENTER":1.1028,"MEAN_ANOMALY":359.1866,"EPHEMERIS_TYPE":0,"CLASSIFICATION_TYPE":"U","NORAD_CAT_ID":3504,"ELEMENT_SET_NO":999,"REV_AT_EPOCH":70757,"BSTAR":6.6439e-5,"MEAN_MOTION_DOT":1.09e-6,"MEAN_MOTION_DDOT":0}]
